132P/Helin-Roman-Alu,e,5.3763,173.9671,216.5235,3.893080,0.1283111,0.56375791,192.1276,12/19.0/2025,2000,g 11.0,6.0
# From MPEC 2025-W75
134P/Kowal-Vavrova,e,4.3316,202.0201,18.5836,6.276359,0.0626819,0.58563392,267.1881,12/19.0/2025,2000,g 11.5,4.0
# From MPEC 2025-W75
135P/Shoemaker-Levy,e,6.0621,213.0177,22.3330,3.802018,0.1329483,0.29327045,179.9744,12/19.0/2025,2000,g  7.0,8.0
# From MPEC 2025-XC7
136P/Mueller,e,9.4277,137.4092,225.4117,4.187866,0.1150045,0.29337107,40.1567,12/19.0/2025,2000,g 11.0,4.0
# From MPEC 2025-W75
137P/Shoemaker-Levy,e,4.8588,232.9296,141.2026,4.524383,0.1024153,0.57273099,262.3379,12/19.0/2025,2000,g 11.0,4.0
# From MPEC 2025-W75
138P/Shoemaker-Levy,e,10.0984,309.2191,95.7547,3.616017,0.1433370,0.53144932,346.3370,12/19.0/2025,2000,g 15.0,6.0
# From MPEC 2025-W75
139P/Vaisala-Oterma,e,2.3382,242.1319,166.0723,4.512503,0.1028200,0.24818876,300.2502,12/19.0/2025,2000,g  9.5,4.0
# From MPEC 2025-W75
140P/Bowell-Skiff,e,3.6800,343.3593,172.1461,6.414910,0.0606622,0.69494430,231.6170,12/19.0/2025,2000,g 11.5,6.0
# From MPEC 2025-W75
141P/Machholz,e,13.9605,241.7737,153.6470,3.056645,0.1844321,0.73583314,336.9476,12/19.0/2025,2000,g 12.0,12.0
# From MPEC 2015-KD9
141P-A/Machholz,e,13.9424,153.4952,241.9364,3.056918,0.1844074,0.73585317,336.8836,12/19.0/2025,2000,g 12.0,12.0
# From MPC 37026
141P-D/Machholz,e,13.8341,153.2200,242.1851,3.065466,0.1836366,0.73679085,332.3430,12/19.0/2025,2000,g 12.0,12.0
# From MPC186636
141P-H/Machholz,e,14.0166,241.8491,153.6215,3.045680,0.1854290,0.73458117,340.7560,12/19.0/2025,2000,g 18.5,4.0
# From MPEC 2022-SU8
141P-I/Machholz,e,13.9424,153.4504,241.9461,3.047347,0.1852769,0.73508150,338.5774,12/19.0/2025,2000,g 17.5,4.0
# From MPEC 2025-W75
142P/Ge-Wang,e,12.2431,175.9628,174.0413,5.003554,0.0880615,0.49575824,148.2473,12/19.0/2025,2000,g  8.5,6.0
# From MPEC 2025-X35
143P/Kowal-Mrkos,e,5.3998,242.1244,304.6976,4.760027,0.0949052,0.37885552,324.5368,12/19.0/2025,2000,g 13.5,2.0
# From MPEC 2025-W75
144P/Kushida,e,3.9311,242.9241,216.3788,3.834655,0.1312546,0.63493615,90.9785,12/19.0/2025,2000,g  8.5,8.0
# From MPEC 2025-XC7
145P/Shoemaker-Levy,e,11.2783,26.7667,10.4197,4.129224,0.1174631,0.54235606,354.8393,12/19.0/2025,2000,g 13.5,4.0
# From MPEC 2025-W75
146P/Shoemaker-LINEAR,e,23.1168,53.3315,317.0202,4.022679,0.1221606,0.64759608,61.1562,12/19.0/2025,2000,g 15.0,4.0
# From MPEC 2025-W75
147P/Kushida-Muramatsu,e,2.3112,91.6649,348.6321,4.009262,0.1227743,0.21159581,91.2279,12/19.0/2025,2000,g 14.0,4.0
# From MPEC 2025-W75
148P/Anderson-LINEAR,e,3.6588,89.1949,8.0947,3.620256,0.1430853,0.55038634,183.6455,12/19.0/2025,2000,g 16.0,2.0
# From MPEC 2025-W75
149P/Mueller,e,34.2492,143.7171,30.0980,4.134482,0.1172391,0.32467295,317.5871,12/19.0/2025,2000,g  8.0,8.0
# From MPEC 2025-W75
150P/LONEOS,e,18.5479,272.0548,246.1259,3.872205,0.1293501,0.54933518,83.6095,12/19.0/2025,2000,g 13.5,4.0
# From MPEC 2025-W75
151P/Helin,e,4.7219,143.0583,216.1976,5.767785,0.0711525,0.57225717,264.7774,12/19.0/2025,2000,g 10.0,6.0
# From MPEC 2025-W75
152P/Helin-Lawrence,e,9.8796,91.7764,164.4036,4.486234,0.1037245,0.30652727,149.0191,12/19.0/2025,2000,g 11.5,4.0
# From MPEC 2025-W75
153P/Ikeya-Zhang,e,28.5015,93.8027,34.2061,50.78299,0.0027235,0.99025946,0.0000,03/15.6418/2002,2000,g  7.0,4.0
# From MPEC 2025-W75
154P/Brewington,e,17.6401,342.9948,47.9139,4.793513,0.0939125,0.67616821,52.0146,12/19.0/2025,2000,g  2.5,12.0
# From MPEC 2025-W75
155P/Shoemaker,e,6.4108,97.1568,14.5432,6.572581,0.0584925,0.72773596,130.0294,12/19.0/2025,2000,g 10.0,4.8
# From MPEC 2025-W75
156P/Russell-LINEAR,e,17.2573,35.3266,0.5317,3.462647,0.1529649,0.61474048,283.8860,12/19.0/2025,2000,g 15.5,2.0
# From MPEC 2025-W75
157P/Tritton,e,12.4252,287.4956,155.1945,3.548303,0.1474596,0.55671344,176.3203,12/19.0/2025,2000,g 10.0,4.0
# From MPEC 2022-VC5
157P-B/Tritton,e,12.4266,153.8677,287.2341,3.102762,0.1803356,0.49984129,215.9364,12/19.0/2025,2000,g 15.7,4.0
# From MPEC 2025-W75
158P/Kowal-LINEAR,e,7.4915,124.1871,233.2413,5.725085,0.0719501,0.11528023,83.8444,12/19.0/2025,2000,g  9.0,4.0
# From MPEC 2025-W75
159P/LONEOS,e,23.4780,54.9370,4.7521,5.856059,0.0695498,0.38231523,192.2134,12/19.0/2025,2000,g 10.0,4.0
# From MPEC 2025-W75
160P/LINEAR,e,15.5892,333.3157,12.7899,3.780415,0.1340895,0.52489577,296.4104,12/19.0/2025,2000,g 15.5,2.0
# From MPEC 2025-W75
161P/Hartley-IRAS,e,95.7882,1.4806,47.0770,7.718866,0.0459593,0.83610770,344.2118,12/19.0/2025,2000,g  8.5,6.0
# From MPEC 2025-W75
162P/SidingSpring,e,27.5519,30.8696,357.2469,3.091456,0.1813257,0.58287383,332.8299,12/19.0/2025,2000,g 12.0,4.0
# From MPEC 2025-W75
163P/NEAT,e,12.7244,102.0685,349.6699,3.760037,0.1351811,0.45347470,314.0403,12/19.0/2025,2000,g 14.5,4.0
# From MPEC 2025-XC7
164P/Christensen,e,16.2761,88.2667,325.9254,3.652140,0.1412157,0.54142910,29.0391,12/19.0/2025,2000,g 11.0,4.0
# From MPEC 2025-W75
165P/LINEAR,e,15.9129,0.6243,125.9488,17.81554,0.0131071,0.61950042,122.0714,12/19.0/2025,2000,g 11.5,2.0
# From MPEC 2025-W75
166P/NEAT,e,15.3858,64.3372,321.9905,13.84990,0.0191220,0.38211347,164.4767,12/19.0/2025,2000,g  5.5,4.0
# From MPEC 2025-W75
167P/CINEOS,e,19.0725,295.8439,344.3115,16.24502,0.0150530,0.26790318,136.0862,12/19.0/2025,2000,g  9.5,2.0
# From MPEC 2025-W75
168P/Hergenrother,e,21.5946,355.3798,15.1060,3.586041,0.1451380,0.62109867,337.0236,12/19.0/2025,2000,g 15.5,4.0
# From MPEC 2025-W75
169P/NEAT,e,11.2851,176.0428,218.1332,2.603666,0.2345990,0.76794990,295.1625,12/19.0/2025,2000,g 16.0,2.0
# From MPEC 2025-W75
170P/Christensen,e,10.1346,142.6356,224.5873,4.191015,0.1148749,0.30545345,112.4478,12/19.0/2025,2000,g 12.0,4.0
# From MPEC 2025-WD0
171P/Spahr,e,21.9549,101.6939,347.0663,3.553313,0.1471478,0.50289468,12.5053,12/19.0/2025,2000,g 13.5,4.0
# From MPEC 2025-W75
172P/Yeung,e,11.2218,30.8801,208.8697,4.224705,0.1135036,0.20510725,5.2936,12/19.0/2025,2000,g 13.0,4.0
# From MPEC 2025-W75
173P/Mueller,e,16.4939,100.3452,29.3463,5.716914,0.0721044,0.26244723,105.3837,12/19.0/2025,2000,g  7.5,4.0
# From MPEC 2025-W75
175P/Hergenrother,e,4.9302,109.8082,74.5605,3.691307,0.1389741,0.37506445,324.1449,12/19.0/2025,2000,g 14.0,4.0
# From MPEC 2025-W75
177P/Barnard,e,30.9614,271.5950,61.0418,24.49979,0.0081276,0.95405989,57.3295,12/19.0/2025,2000,g 15.0,4.0
# From MPEC 2025-W75
178P/Hug-Bell,e,11.0928,102.7838,297.9663,3.632680,0.1423519,0.48215806,281.7750,12/19.0/2025,2000,g 13.5,4.0
# From MPEC 2025-W75
179P/Jedicke,e,19.8892,115.5050,297.2483,5.937861,0.0681176,0.30516865,88.3703,12/19.0/2025,2000,g  2.5,8.0
# From MPEC 2025-W75
180P/NEAT,e,16.8610,84.5549,94.5947,3.867375,0.1295924,0.35401566,115.4299,12/19.0/2025,2000,g 11.0,4.0
# From MPEC 2025-W75
181P/Shoemaker-Levy,e,17.4715,35.4253,336.3071,3.879694,0.1289757,0.69954914,185.8643,12/19.0/2025,2000,g 11.5,4.0
# From MPEC 2025-W75
182P/LONEOS,e,16.2299,72.4439,54.2302,2.948339,0.1946875,0.66405103,256.1610,12/19.0/2025,2000,g 18.0,4.0
# From MPEC 2025-W75
183P/Korlevic-Juric,e,18.7186,3.3604,161.9137,4.716963,0.0962078,0.10317372,299.5500,12/19.0/2025,2000,g 12.5,2.0
# From MPEC 2025-W75
184P/Lovas,e,4.5688,173.2256,186.5873,3.801544,0.1329732,0.54957314,250.1676,12/19.0/2025,2000,g 13.5,4.0
# From MPEC 2025-W75
185P/Petriew,e,14.0057,214.1246,181.9242,3.100083,0.1805694,0.69922591,160.7649,12/19.0/2025,2000,g 15.0,4.0
# From MPEC 2025-W75
186P/Garradd,e,28.7031,325.7511,267.9351,4.862704,0.0919152,0.12316330,236.8399,12/19.0/2025,2000,g  7.5,4.0
# From MPEC 2025-W75
187P/LINEAR,e,13.6693,109.8486,132.0113,4.545837,0.1016912,0.15661671,280.7904,12/19.0/2025,2000,g  9.0,4.0
# From MPEC 2025-XC7
188P/LINEAR-Mueller,e,10.5258,358.9106,26.8490,4.363615,0.1081271,0.41652009,347.5305,12/19.0/2025,2000,g 11.5,4.0
# From MPEC 2025-W75
189P/NEAT,e,20.1210,281.6803,16.2140,2.937739,0.1957421,0.59163701,236.1806,12/19.0/2025,2000,g 19.0,4.0
# From MPEC 2025-W75
190P/Mueller,e,2.1769,335.4175,50.5257,4.230572,0.1132675,0.52314167,40.7630,12/19.0/2025,2000,g 13.0,4.0
# From MPEC 2025-W75
191P/McNaught,e,8.8396,98.1780,284.2598,3.641427,0.1418393,0.38490532,246.1199,12/19.0/2025,2000,g 13.0,4.0
# From MPEC 2025-W75
192P/Shoemaker-Levy,e,24.5763,51.5349,313.0212,6.445549,0.0602302,0.77327490,34.5464,12/19.0/2025,2000,g 15.0,4.0
# From MPEC 2025-W75
193P/LINEAR-NEAT,e,10.6777,335.1824,8.0952,3.580165,0.1454955,0.39245195,229.7189,12/19.0/2025,2000,g 14.0,4.0
# From MPEC 2025-W75
194P/LINEAR,e,11.8031,349.4964,128.6529,4.123767,0.1176963,0.56340965,80.4590,12/19.0/2025,2000,g 16.0,4.0
# From MPEC 2025-XC7
195P/Hill,e,36.4150,243.0888,250.6607,6.440285,0.0603040,0.31049000,8.1381,12/19.0/2025,2000,g  8.5,4.0
# From MPEC 2025-W75
196P/Tichy,e,19.2906,24.1256,12.1485,3.806989,0.1326880,0.42727635,152.2015,12/19.0/2025,2000,g 13.5,4.0
# From MPEC 2025-W75
197P/LINEAR,e,25.1918,66.1154,189.9955,2.911306,0.1984140,0.61734853,220.5144,12/19.0/2025,2000,g 16.5,2.0
# From MPEC 2025-WD0
198P/ODAS,e,1.3393,358.3280,69.2828,3.631284,0.1424340,0.44788419,3.9693,12/19.0/2025,2000,g 12.5,4.0
# From MPEC 2025-W75
199P/Shoemaker,e,24.9398,92.3420,191.7412,5.871193,0.0692811,0.50420163,59.9205,12/19.0/2025,2000,g 10.0,4.0
# From MPEC 2025-W75
200P/Larsen,e,12.0963,234.7312,134.4488,4.954734,0.0893663,0.33079115,208.8026,12/19.0/2025,2000,g  9.0,4.0
# From MPEC 2025-W75
201P/LONEOS,e,5.7334,19.6774,41.6558,3.354488,0.1604223,0.63742847,267.2301,12/19.0/2025,2000,g 14.0,4.0
# From MPEC 2025-W75
202P/Scotti,e,2.1417,177.3001,274.5259,4.099416,0.1187466,0.25097556,68.9478,12/19.0/2025,2000,g 13.5,4.0
# From MPEC 2025-W75
203P/Korlevic,e,2.9762,290.2202,154.9692,4.668396,0.0977131,0.31634971,206.3574,12/19.0/2025,2000,g 14.5,2.0
# From MPEC 2025-W75
204P/LINEAR-NEAT,e,6.5984,108.4721,356.7457,3.584368,0.1452396,0.48830156,163.7598,12/19.0/2025,2000,g 14.0,4.0
# From MPEC 2025-W75
205P/Giacobini,e,15.2997,179.6246,154.1359,3.543366,0.1477679,0.56714935,212.3278,12/19.0/2025,2000,g 13.0,4.0
# From MPEC 2025-WD0
